{"type": "FeatureCollection", "features": [ {"type": "Feature", "properties": {"norad_id": 66899, "name": "STARLINK-36064", "group": "last-30-days", "lat": 37.38259091896068, "lon": 66.47417298954258, "alt_km": 341.5752913771139, "timestamp": "2025-12-21T03:56:49.617132+00:00", "meta": {"OBJECT_NAME": "STARLINK-36064", "OBJECT_ID": "2025-283X", "EPOCH": "2025-12-20T20:00:01.999008", "MEAN_MOTION": 15.74203324, "ECCENTRICITY": 0.0001357, "INCLINATION": 53.1577, "RA_OF_ASC_NODE": 33.1651, "ARG_OF_PERICENTER": 96.6377, "MEAN_ANOMALY": 235.3069, "EPHEMERIS_TYPE": 0, "CLASSIFICATION_TYPE": "U", "NORAD_CAT_ID": 66899, "ELEMENT_SET_NO": 999, "REV_AT_EPOCH": 367, "BSTAR": -0.00042232, "MEAN_MOTION_DOT": -0.00062065, "MEAN_MOTION_DDOT": 0}, "tle": {"line1": "1 66899U 25283X   25354.83335647 -.00062065  00000+0 -42232-3 0  9992", "line2": "2 66899  53.1577  33.1651 0001357  96.6377 235.3069 15.74203324  3676"}}, "geometry": {"type": "Point", "coordinates": [66.47417298954258, 37.38259091896068]}}, {"type": "Feature", "properties": {"norad_id": 66900, "name": "STARLINK-36074", "group": "last-30-days", "lat": 38.629732004793176, "lon": 68.32977661369297, "alt_km": 341.3613176530016, "timestamp": "2025-12-21T03:56:49.617141+00:00", "meta": {"OBJECT_NAME": "STARLINK-36074", "OBJECT_ID": "2025-283Y", "EPOCH": "2025-12-20T20:00:01.999008", "MEAN_MOTION": 15.74213097, "ECCENTRICITY": 0.0001009, "INCLINATION": 53.1575, "RA_OF_ASC_NODE": 33.1612, "ARG_OF_PERICENTER": 76.4803, "MEAN_ANOMALY": 257.3702, "EPHEMERIS_TYPE": 0, "CLASSIFICATION_TYPE": "U", "NORAD_CAT_ID": 66900, "ELEMENT_SET_NO": 999, "REV_AT_EPOCH": 373, "BSTAR": -0.00046758, "MEAN_MOTION_DOT": -0.00068622, "MEAN_MOTION_DDOT": 0}, "tle": {"line1": "1 66900U 25283Y   25354.83335647 -.00068622  00000+0 -46758-3 0  9997", "line2": "2 66900  53.1575  33.1612 0001009  76.4803 257.3702 15.74213097  3731"}}, "geometry": {"type": "Point", "coordinates": [68.32977661369297, 38.629732004793176]}}, {"type": "Feature", "properties": {"norad_id": 66901, "name": "STARLINK-36043", "group": "last-30-days", "lat": 39.84551275601601, "lon": 70.2478981722252, "alt_km": 341.00974996929745, "timestamp": "2025-12-21T03:56:49.617151+00:00", "meta": {"OBJECT_NAME": "STARLINK-36043", "OBJECT_ID": "2025-283Z", "EPOCH": "2025-12-20T20:00:01.999008", "MEAN_MOTION": 15.74231877, "ECCENTRICITY": 0.0001322, "INCLINATION": 53.1577, "RA_OF_ASC_NODE": 33.1569, "ARG_OF_PERICENTER": 82.2732, "MEAN_ANOMALY": 253.4886, "EPHEMERIS_TYPE": 0, "CLASSIFICATION_TYPE": "U", "NORAD_CAT_ID": 66901, "ELEMENT_SET_NO": 999, "REV_AT_EPOCH": 373, "BSTAR": -0.00066827, "MEAN_MOTION_DOT": -0.00097558, "MEAN_MOTION_DDOT": 0}, "tle": {"line1": "1 66901U 25283Z   25354.83335647 -.00097558  00000+0 -66827-3 0  9997", "line2": "2 66901  53.1577  33.1569 0001322  82.2732 253.4886 15.74231877  3735"}}, "geometry": {"type": "Point", "coordinates": [70.2478981722252, 39.84551275601601]}}, {"type": "Feature", "properties": {"norad_id": 66902, "name": "STARLINK-35983", "group": "last-30-days", "lat": 41.4299773373936, "lon": 72.94047390354886, "alt_km": 339.4967046929787, "timestamp": "2025-12-21T03:56:49.617160+00:00", "meta": {"OBJECT_NAME": "STARLINK-35983", "OBJECT_ID": "2025-283AA", "EPOCH": "2025-12-20T20:00:01.999008", "MEAN_MOTION": 15.74455776, "ECCENTRICITY": 0.0001642, "INCLINATION": 53.1574, "RA_OF_ASC_NODE": 33.1524, "ARG_OF_PERICENTER": 90.3217, "MEAN_ANOMALY": 247.6524, "EPHEMERIS_TYPE": 0, "CLASSIFICATION_TYPE": "U", "NORAD_CAT_ID": 66902, "ELEMENT_SET_NO": 999, "REV_AT_EPOCH": 373, "BSTAR": 0.001194, "MEAN_MOTION_DOT": 0.00180089, "MEAN_MOTION_DDOT": 0}, "tle": {"line1": "1 66902U 25283AA  25354.83335647  .00180089  00000+0  11940-2 0  9993", "line2": "2 66902  53.1574  33.1524 0001642  90.3217 247.6524 15.74455776  3737"}}, "geometry": {"type": "Point", "coordinates": [72.94047390354886, 41.4299773373936]}}, {"type": "Feature", "properties": {"norad_id": 66903, "name": "STARLINK-36077", "group": "last-30-days", "lat": 42.17224706872985, "lon": 74.28802495584243, "alt_km": 340.93855542795336, "timestamp": "2025-12-21T03:56:49.617169+00:00", "meta": {"OBJECT_NAME": "STARLINK-36077", "OBJECT_ID": "2025-283AB", "EPOCH": "2025-12-20T20:00:01.999008", "MEAN_MOTION": 15.74207801, "ECCENTRICITY": 0.000108, "INCLINATION": 53.1575, "RA_OF_ASC_NODE": 33.1493, "ARG_OF_PERICENTER": 102.873, "MEAN_ANOMALY": 236.7414, "EPHEMERIS_TYPE": 0, "CLASSIFICATION_TYPE": "U", "NORAD_CAT_ID": 66903, "ELEMENT_SET_NO": 999, "REV_AT_EPOCH": 373, "BSTAR": -0.0004778, "MEAN_MOTION_DOT": -0.00070082, "MEAN_MOTION_DDOT": 0}, "tle": {"line1": "1 66903U 25283AB  25354.83335647 -.00070082  00000+0 -47780-3 0  9999", "line2": "2 66903  53.1575  33.1493 0001080 102.8730 236.7414 15.74207801  3730"}}, "geometry": {"type": "Point", "coordinates": [74.28802495584243, 42.17224706872985]}}, {"type": "Feature", "properties": {"norad_id": 66904, "name": "STARLINK-36059", "group": "last-30-days", "lat": 43.28261489945448, "lon": 76.4228855224302, "alt_km": 340.6306239070136, "timestamp": "2025-12-21T03:56:49.617179+00:00", "meta": {"OBJECT_NAME": "STARLINK-36059", "OBJECT_ID": "2025-283AC", "EPOCH": "2025-12-20T20:00:01.999008", "MEAN_MOTION": 15.7419924, "ECCENTRICITY": 0.0001069, "INCLINATION": 53.1576, "RA_OF_ASC_NODE": 33.1445, "ARG_OF_PERICENTER": 85.5653, "MEAN_ANOMALY": 255.9725, "EPHEMERIS_TYPE": 0, "CLASSIFICATION_TYPE": "U", "NORAD_CAT_ID": 66904, "ELEMENT_SET_NO": 999, "REV_AT_EPOCH": 373, "BSTAR": -0.00039102, "MEAN_MOTION_DOT": -0.00057531, "MEAN_MOTION_DDOT": 0}, "tle": {"line1": "1 66904U 25283AC  25354.83335647 -.00057531  00000+0 -39102-3 0  9993", "line2": "2 66904  53.1576  33.1445 0001069  85.5653 255.9725 15.74199240  3732"}}, "geometry": {"type": "Point", "coordinates": [76.4228855224302, 43.28261489945448]}}, {"type": "Feature", "properties": {"norad_id": 66905, "name": "STARLINK-36075", "group": "last-30-days", "lat": 44.34583117299227, "lon": 78.62498215884118, "alt_km": 340.39448501108836, "timestamp": "2025-12-21T03:56:49.617188+00:00", "meta": {"OBJECT_NAME": "STARLINK-36075", "OBJECT_ID": "2025-283AD", "EPOCH": "2025-12-20T20:00:01.999008", "MEAN_MOTION": 15.74202285, "ECCENTRICITY": 0.0001134, "INCLINATION": 53.1575, "RA_OF_ASC_NODE": 33.141, "ARG_OF_PERICENTER": 80.7873, "MEAN_ANOMALY": 262.6588, "EPHEMERIS_TYPE": 0, "CLASSIFICATION_TYPE": "U", "NORAD_CAT_ID": 66905, "ELEMENT_SET_NO": 999, "REV_AT_EPOCH": 373, "BSTAR": -0.00042349, "MEAN_MOTION_DOT": -0.0006223, "MEAN_MOTION_DDOT": 0}, "tle": {"line1": "1 66905U 25283AD  25354.83335647 -.00062230  00000+0 -42349-3 0  9993", "line2": "2 66905  53.1575  33.1410 0001134  80.7873 262.6588 15.74202285  3734"}}, "geometry": {"type": "Point", "coordinates": [78.62498215884118, 44.34583117299227]}}, {"type": "Feature", "properties": {"norad_id": 66906, "name": "1998-067XS", "group": "last-30-days", "lat": -27.723546453906543, "lon": 76.01634507914177, "alt_km": 417.1142183200891, "timestamp": "2025-12-21T03:56:49.617197+00:00", "meta": {"OBJECT_NAME": "1998-067XS", "OBJECT_ID": "1998-067XS", "EPOCH": "2025-12-20T11:05:35.991168", "MEAN_MOTION": 15.50962254, "ECCENTRICITY": 0.00030029, "INCLINATION": 51.6311, "RA_OF_ASC_NODE": 104.1082, "ARG_OF_PERICENTER": 237.5, "MEAN_ANOMALY": 122.5699, "EPHEMERIS_TYPE": 0, "CLASSIFICATION_TYPE": "U", "NORAD_CAT_ID": 66906, "ELEMENT_SET_NO": 999, "REV_AT_EPOCH": 281, "BSTAR": 0.00037246497, "MEAN_MOTION_DOT": 0.00021596, "MEAN_MOTION_DDOT": 0}, "tle": {"line1": "1 66906U 98067XS  25354.46222212  .00021596  00000+0  37246-3 0  9994", "line2": "2 66906  51.6311 104.1082 0003002 237.5000 122.5699 15.50962254  2818"}}, "geometry": {"type": "Point", "coordinates": [76.01634507914177, -27.723546453906543]}}, {"type": "Feature", "properties": {"norad_id": 66907, "name": "1998-067XT", "group": "last-30-days", "lat": 11.306393755454355, "lon": 109.62763661910428, "alt_km": 409.41352197525794, "timestamp": "2025-12-21T03:56:49.617206+00:00", "meta": {"OBJECT_NAME": "1998-067XT", "OBJECT_ID": "1998-067XT", "EPOCH": "2025-12-19T11:42:50.767776", "MEAN_MOTION": 15.52255247, "ECCENTRICITY": 0.0003998, "INCLINATION": 51.6306, "RA_OF_ASC_NODE": 108.8528, "ARG_OF_PERICENTER": 265.7173, "MEAN_ANOMALY": 94.336, "EPHEMERIS_TYPE": 0, "CLASSIFICATION_TYPE": "U", "NORAD_CAT_ID": 66907, "ELEMENT_SET_NO": 999, "REV_AT_EPOCH": 266, "BSTAR": 0.00077339, "MEAN_MOTION_DOT": 0.00047666, "MEAN_MOTION_DDOT": 0}, "tle": {"line1": "1 66907U 98067XT  25353.48808759  .00047666  00000+0  77339-3 0  9995", "line2": "2 66907  51.6306 108.8528 0003998 265.7173  94.3360 15.52255247  2660"}}, "geometry": {"type": "Point", "coordinates": [109.62763661910428, 11.306393755454355]}}, {"type": "Feature", "properties": {"norad_id": 66908, "name": "1998-067XU", "group": "last-30-days", "lat": 14.944141176869815, "lon": 112.71452110739332, "alt_km": 408.65144718737974, "timestamp": "2025-12-21T03:56:49.617215+00:00", "meta": {"OBJECT_NAME": "1998-067XU", "OBJECT_ID": "1998-067XU", "EPOCH": "2025-12-20T13:57:38.962944", "MEAN_MOTION": 15.52465702, "ECCENTRICITY": 0.0003923, "INCLINATION": 51.6312, "RA_OF_ASC_NODE": 103.4063, "ARG_OF_PERICENTER": 272.2862, "MEAN_ANOMALY": 87.7679, "EPHEMERIS_TYPE": 0, "CLASSIFICATION_TYPE": "U", "NORAD_CAT_ID": 66908, "ELEMENT_SET_NO": 999, "REV_AT_EPOCH": 283, "BSTAR": 0.00073918, "MEAN_MOTION_DOT": 0.00045874, "MEAN_MOTION_DDOT": 0}, "tle": {"line1": "1 66908U 98067XU  25354.58170096  .00045874  00000+0  73918-3 0  9992", "line2": "2 66908  51.6312 103.4063 0003923 272.2862  87.7679 15.52465702  2836"}}, "geometry": {"type": "Point", "coordinates": [112.71452110739332, 14.944141176869815]}}]}